GLOBALSTAR M035         
1 25851U 99037A   25318.83019090 -.00000022  00000+0  15646-2 0  9996
2 25851  51.9949  79.0115 0013303 221.7322 310.5693 11.04540387112905
GLOBALSTAR M032         
1 25852U 99037B   25318.84210903  .00000057  00000+0  39865-2 0  9990
2 25852  51.9953 253.7959 0013083  59.3650 300.8438 11.19068797151652
GLOBALSTAR M051         
1 25853U 99037C   25318.66389074 -.00000062  00000+0  24552-3 0  9992
2 25853  51.9825  37.8819 0000908 129.1442 230.9449 11.42207066149588
GLOBALSTAR M030         
1 25854U 99037D   25318.82668267 -.00000114  00000+0 -83192-3 0  9999
2 25854  51.9859 194.0176 0002998 336.7374  23.3307 11.55109908167452
GLOBALSTAR M048         
1 25872U 99041A   25318.80323116 -.00000047  00000+0  61863-3 0  9998
2 25872  51.9394 338.4060 0013344  85.5394  85.1472 11.33859988142065
GLOBALSTAR M026         
1 25873U 99041B   25318.68289659 -.00000165  00000+0 -37331-2 0  9992
2 25873  51.9980 195.7155 0001920 129.8643 240.7147 11.06849202165153
GLOBALSTAR M043         
1 25874U 99041C   25318.67658833 -.00000081  00000+0 -37278-3 0  9994
2 25874  51.9392  92.3423 0013530 203.4279 169.5720 11.25696448139828
GLOBALSTAR M028         
1 25875U 99041D   25318.72978951 -.00000067  00000+0  21994-3 0  9998
2 25875  51.9606 104.1683 0063647  39.2421 321.3029 12.50591609209016
